ARIANE 44L+ DEB         
1 28577U 92021R   26116.91841421 -.00000221  00000+0  00000+0 0  9993
2 28577   3.3590 121.2689 7000799 257.4544  69.5110  2.23277887176588
BLOCK DM-SL R/B         
1 28627U 05008B   26116.28131910 -.00000213  00000+0  00000+0 0  9994
2 28627   0.7311  29.8319 6556713 204.3911  45.9117  2.13875892165334
INMARSAT 4-F1           
1 28628U 05009A   26116.75669878  .00000024  00000+0  00000+0 0  9996
2 28628   5.1009  42.6887 0002978 348.8748 273.6963  1.00274388 77155
SL-12 R/B(2)            
1 28634U 05010F   26116.78979711  .00000067  00000+0  00000+0 0  9995
2 28634  13.0716  18.7938 0022409 268.1962 265.5554  1.00229247 77182
BREEZE-M R/B            
1 28656U 04008C   26116.27681058  .00000185  00000+0  00000+0 0  9994
2 28656  12.9348 285.3402 6095487   8.8214 358.2428  1.97320296153237
DIRECTV 8               
1 28659U 05019A   26116.89822080  .00000000  00000+0  00000+0 0  9996
2 28659   0.0135 229.0326 0003243 174.7289  15.4390  1.00271044 76559
BREEZE-M R/B            
1 28660U 05019B   26116.41354501 -.00000078  00000+0  00000+0 0  9990
2 28660   9.6249 124.6016 3292333  30.9484 146.0327  1.54369479117748
GALAXY 28 (G-28)        
1 28702U 05022A   26116.84518323 -.00000209  00000+0  00000+0 0  9998
2 28702   3.1689  79.5440 0003239 317.9585  94.4845  1.00266347 51461
SL-12 R/B(2)            
1 28704U 05023H   26116.65691981 -.00000371  00000+0  00000+0 0  9992
2 28704  12.8527  19.2352 0012420 329.1074 205.2689  1.00814549 76686
THAICOM 4               
1 28786U 05028A   26116.92906095 -.00000373  00000+0  00000+0 0  9994
2 28786   0.1140  84.3335 0001995 316.3457 268.2051  1.00270675 51736
ARIANE 5 R/B            
1 28787U 05028B   26116.79379454 -.00000151  00000+0 -36323-4 0  9990
2 28787   6.7941 242.7570 7154013 111.8763 334.1055  2.26684540171474
ANIK F1R                
1 28868U 05036A   26116.52912204 -.00000084  00000+0  00000+0 0  9998
2 28868   4.1828  77.2015 0003418 331.5005 249.0329  1.00272170 45932
SYRACUSE 3A             
1 28885U 05041B   26116.97791730  .00000124  00000+0  00000+0 0  9995
2 28885   4.5138  76.4540 0003432 315.9114 220.8511  1.00270668 75232
ARIANE 5 R/B            
1 28886U 05041C   26116.56471108 -.00000139  00000+0  92845-3 0  9994
2 28886   7.7199 221.6026 7177624 333.8851 296.1478  2.24430672168294
INMARSAT 4-F2           
1 28899U 05044A   26116.73632355 -.00000270  00000+0  00000+0 0  9997
2 28899   5.0308  43.7600 0002737 349.2893 230.2135  1.00270978 75003
METEOSAT-9 (MSG-2)      
1 28912U 05049B   26116.93089426  .00000118  00000+0  00000+0 0  9995
2 28912   9.2489  54.6630 0000511 343.3476 197.6940  1.00275091  6486
ARIANE 5 R/B            
1 28913U 05049C   26116.91373419  .00000010  00000+0  13881-2 0  9997
2 28913   4.5564 335.8232 7153303 297.5306 309.8326  2.24899205167230
