[{"OBJECT_NAME":"ARIANE 44L+ DEB","OBJECT_ID":"1992-021R","EPOCH":"2026-04-26T22:02:30.987744","MEAN_MOTION":2.23277887,"ECCENTRICITY":0.70007998,"INCLINATION":3.359,"RA_OF_ASC_NODE":121.2689,"ARG_OF_PERICENTER":257.4544,"MEAN_ANOMALY":69.511,"EPHEMERIS_TYPE":0,"CLASSIFICATION_TYPE":"U","NORAD_CAT_ID":28577,"ELEMENT_SET_NO":999,"REV_AT_EPOCH":17658,"BSTAR":0,"MEAN_MOTION_DOT":-2.21e-6,"MEAN_MOTION_DDOT":0},{"OBJECT_NAME":"BLOCK DM-SL R/B","OBJECT_ID":"2005-008B","EPOCH":"2026-04-26T06:45:05.970240","MEAN_MOTION":2.13875892,"ECCENTRICITY":0.65567138,"INCLINATION":0.7311,"RA_OF_ASC_NODE":29.8319,"ARG_OF_PERICENTER":204.3911,"MEAN_ANOMALY":45.9117,"EPHEMERIS_TYPE":0,"CLASSIFICATION_TYPE":"U","NORAD_CAT_ID":28627,"ELEMENT_SET_NO":999,"REV_AT_EPOCH":16533,"BSTAR":0,"MEAN_MOTION_DOT":-2.13e-6,"MEAN_MOTION_DDOT":0},{"OBJECT_NAME":"INMARSAT 4-F1","OBJECT_ID":"2005-009A","EPOCH":"2026-04-26T18:09:38.774592","MEAN_MOTION":1.00274388,"ECCENTRICITY":0.0002978,"INCLINATION":5.1009,"RA_OF_ASC_NODE":42.6887,"ARG_OF_PERICENTER":348.8748,"MEAN_ANOMALY":273.6963,"EPHEMERIS_TYPE":0,"CLASSIFICATION_TYPE":"U","NORAD_CAT_ID":28628,"ELEMENT_SET_NO":999,"REV_AT_EPOCH":7715,"BSTAR":0,"MEAN_MOTION_DOT":2.4e-7,"MEAN_MOTION_DDOT":0},{"OBJECT_NAME":"SL-12 R/B(2)","OBJECT_ID":"2005-010F","EPOCH":"2026-04-26T18:57:18.470304","MEAN_MOTION":1.00229247,"ECCENTRICITY":0.00224096,"INCLINATION":13.0716,"RA_OF_ASC_NODE":18.7938,"ARG_OF_PERICENTER":268.1962,"MEAN_ANOMALY":265.5554,"EPHEMERIS_TYPE":0,"CLASSIFICATION_TYPE":"U","NORAD_CAT_ID":28634,"ELEMENT_SET_NO":999,"REV_AT_EPOCH":7718,"BSTAR":0,"MEAN_MOTION_DOT":6.7e-7,"MEAN_MOTION_DDOT":0},{"OBJECT_NAME":"BREEZE-M R/B","OBJECT_ID":"2004-008C","EPOCH":"2026-04-26T06:38:36.434112","MEAN_MOTION":1.97320296,"ECCENTRICITY":0.60954872,"INCLINATION":12.9348,"RA_OF_ASC_NODE":285.3402,"ARG_OF_PERICENTER":8.8214,"MEAN_ANOMALY":358.2428,"EPHEMERIS_TYPE":0,"CLASSIFICATION_TYPE":"U","NORAD_CAT_ID":28656,"ELEMENT_SET_NO":999,"REV_AT_EPOCH":15323,"BSTAR":0,"MEAN_MOTION_DOT":1.85e-6,"MEAN_MOTION_DDOT":0},{"OBJECT_NAME":"DIRECTV 8","OBJECT_ID":"2005-019A","EPOCH":"2026-04-26T21:33:26.277120","MEAN_MOTION":1.00271044,"ECCENTRICITY":0.00032439,"INCLINATION":0.0135,"RA_OF_ASC_NODE":229.0326,"ARG_OF_PERICENTER":174.7289,"MEAN_ANOMALY":15.439,"EPHEMERIS_TYPE":0,"CLASSIFICATION_TYPE":"U","NORAD_CAT_ID":28659,"ELEMENT_SET_NO":999,"REV_AT_EPOCH":7655,"BSTAR":0,"MEAN_MOTION_DOT":0,"MEAN_MOTION_DDOT":0},{"OBJECT_NAME":"BREEZE-M R/B","OBJECT_ID":"2005-019B","EPOCH":"2026-04-26T09:55:30.288864","MEAN_MOTION":1.54369479,"ECCENTRICITY":0.32923338,"INCLINATION":9.6249,"RA_OF_ASC_NODE":124.6016,"ARG_OF_PERICENTER":30.9484,"MEAN_ANOMALY":146.0327,"EPHEMERIS_TYPE":0,"CLASSIFICATION_TYPE":"U","NORAD_CAT_ID":28660,"ELEMENT_SET_NO":999,"REV_AT_EPOCH":11774,"BSTAR":0,"MEAN_MOTION_DOT":-7.8e-7,"MEAN_MOTION_DDOT":0},{"OBJECT_NAME":"GALAXY 28 (G-28)","OBJECT_ID":"2005-022A","EPOCH":"2026-04-26T20:17:03.831072","MEAN_MOTION":1.00266347,"ECCENTRICITY":0.00032393,"INCLINATION":3.1689,"RA_OF_ASC_NODE":79.544,"ARG_OF_PERICENTER":317.9585,"MEAN_ANOMALY":94.4845,"EPHEMERIS_TYPE":0,"CLASSIFICATION_TYPE":"U","NORAD_CAT_ID":28702,"ELEMENT_SET_NO":999,"REV_AT_EPOCH":5146,"BSTAR":0,"MEAN_MOTION_DOT":-2.09e-6,"MEAN_MOTION_DDOT":0},{"OBJECT_NAME":"SL-12 R/B(2)","OBJECT_ID":"2005-023H","EPOCH":"2026-04-26T15:45:57.871584","MEAN_MOTION":1.00814549,"ECCENTRICITY":0.00124207,"INCLINATION":12.8527,"RA_OF_ASC_NODE":19.2352,"ARG_OF_PERICENTER":329.1074,"MEAN_ANOMALY":205.2689,"EPHEMERIS_TYPE":0,"CLASSIFICATION_TYPE":"U","NORAD_CAT_ID":28704,"ELEMENT_SET_NO":999,"REV_AT_EPOCH":7668,"BSTAR":0,"MEAN_MOTION_DOT":-3.71e-6,"MEAN_MOTION_DDOT":0},{"OBJECT_NAME":"THAICOM 4","OBJECT_ID":"2005-028A","EPOCH":"2026-04-26T22:17:50.866080","MEAN_MOTION":1.00270675,"ECCENTRICITY":0.00019951,"INCLINATION":0.114,"RA_OF_ASC_NODE":84.3335,"ARG_OF_PERICENTER":316.3457,"MEAN_ANOMALY":268.2051,"EPHEMERIS_TYPE":0,"CLASSIFICATION_TYPE":"U","NORAD_CAT_ID":28786,"ELEMENT_SET_NO":999,"REV_AT_EPOCH":5173,"BSTAR":0,"MEAN_MOTION_DOT":-3.73e-6,"MEAN_MOTION_DDOT":0},{"OBJECT_NAME":"ARIANE 5 R/B","OBJECT_ID":"2005-028B","EPOCH":"2026-04-26T19:03:03.848256","MEAN_MOTION":2.2668454,"ECCENTRICITY":0.71540134,"INCLINATION":6.7941,"RA_OF_ASC_NODE":242.757,"ARG_OF_PERICENTER":111.8763,"MEAN_ANOMALY":334.1055,"EPHEMERIS_TYPE":0,"CLASSIFICATION_TYPE":"U","NORAD_CAT_ID":28787,"ELEMENT_SET_NO":999,"REV_AT_EPOCH":17147,"BSTAR":-3.6322595e-5,"MEAN_MOTION_DOT":-1.51e-6,"MEAN_MOTION_DDOT":0},{"OBJECT_NAME":"ANIK F1R","OBJECT_ID":"2005-036A","EPOCH":"2026-04-26T12:41:56.144256","MEAN_MOTION":1.0027217,"ECCENTRICITY":0.0003418,"INCLINATION":4.1828,"RA_OF_ASC_NODE":77.2015,"ARG_OF_PERICENTER":331.5005,"MEAN_ANOMALY":249.0329,"EPHEMERIS_TYPE":0,"CLASSIFICATION_TYPE":"U","NORAD_CAT_ID":28868,"ELEMENT_SET_NO":999,"REV_AT_EPOCH":4593,"BSTAR":0,"MEAN_MOTION_DOT":-8.4e-7,"MEAN_MOTION_DDOT":0},{"OBJECT_NAME":"SYRACUSE 3A","OBJECT_ID":"2005-041B","EPOCH":"2026-04-26T23:28:12.054720","MEAN_MOTION":1.00270668,"ECCENTRICITY":0.0003432,"INCLINATION":4.5138,"RA_OF_ASC_NODE":76.454,"ARG_OF_PERICENTER":315.9114,"MEAN_ANOMALY":220.8511,"EPHEMERIS_TYPE":0,"CLASSIFICATION_TYPE":"U","NORAD_CAT_ID":28885,"ELEMENT_SET_NO":999,"REV_AT_EPOCH":7523,"BSTAR":0,"MEAN_MOTION_DOT":1.24e-6,"MEAN_MOTION_DDOT":0},{"OBJECT_NAME":"ARIANE 5 R/B","OBJECT_ID":"2005-041C","EPOCH":"2026-04-26T13:33:11.037312","MEAN_MOTION":2.24430672,"ECCENTRICITY":0.7177624,"INCLINATION":7.7199,"RA_OF_ASC_NODE":221.6026,"ARG_OF_PERICENTER":333.8851,"MEAN_ANOMALY":296.1478,"EPHEMERIS_TYPE":0,"CLASSIFICATION_TYPE":"U","NORAD_CAT_ID":28886,"ELEMENT_SET_NO":999,"REV_AT_EPOCH":16829,"BSTAR":0.00092845,"MEAN_MOTION_DOT":-1.39e-6,"MEAN_MOTION_DDOT":0},{"OBJECT_NAME":"INMARSAT 4-F2","OBJECT_ID":"2005-044A","EPOCH":"2026-04-26T17:40:18.354720","MEAN_MOTION":1.00270978,"ECCENTRICITY":0.00027375,"INCLINATION":5.0308,"RA_OF_ASC_NODE":43.76,"ARG_OF_PERICENTER":349.2893,"MEAN_ANOMALY":230.2135,"EPHEMERIS_TYPE":0,"CLASSIFICATION_TYPE":"U","NORAD_CAT_ID":28899,"ELEMENT_SET_NO":999,"REV_AT_EPOCH":7500,"BSTAR":0,"MEAN_MOTION_DOT":-2.7e-6,"MEAN_MOTION_DDOT":0},{"OBJECT_NAME":"METEOSAT-9 (MSG-2)","OBJECT_ID":"2005-049B","EPOCH":"2026-04-26T22:20:29.264064","MEAN_MOTION":1.00275091,"ECCENTRICITY":5.119e-5,"INCLINATION":9.2489,"RA_OF_ASC_NODE":54.663,"ARG_OF_PERICENTER":343.3476,"MEAN_ANOMALY":197.694,"EPHEMERIS_TYPE":0,"CLASSIFICATION_TYPE":"U","NORAD_CAT_ID":28912,"ELEMENT_SET_NO":999,"REV_AT_EPOCH":648,"BSTAR":0,"MEAN_MOTION_DOT":1.18e-6,"MEAN_MOTION_DDOT":0},{"OBJECT_NAME":"ARIANE 5 R/B","OBJECT_ID":"2005-049C","EPOCH":"2026-04-26T21:55:46.634016","MEAN_MOTION":2.24899205,"ECCENTRICITY":0.71533036,"INCLINATION":4.5564,"RA_OF_ASC_NODE":335.8232,"ARG_OF_PERICENTER":297.5306,"MEAN_ANOMALY":309.8326,"EPHEMERIS_TYPE":0,"CLASSIFICATION_TYPE":"U","NORAD_CAT_ID":28913,"ELEMENT_SET_NO":999,"REV_AT_EPOCH":16723,"BSTAR":0.0013881427,"MEAN_MOTION_DOT":1.0e-7,"MEAN_MOTION_DDOT":0}]
